OBJECT_NAME,OBJECT_ID,EPOCH,MEAN_MOTION,ECCENTRICITY,INCLINATION,RA_OF_ASC_NODE,ARG_OF_PERICENTER,MEAN_ANOMALY,EPHEMERIS_TYPE,CLASSIFICATION_TYPE,NORAD_CAT_ID,ELEMENT_SET_NO,REV_AT_EPOCH,BSTAR,MEAN_MOTION_DOT,MEAN_MOTION_DDOT
CZ-10B DEB,2026-158B,2026-07-20T21:05:43.784736,14.24892309,.0005851,49.9833,256.4490,329.8507,30.2068,0,U,69973,999,151,.15382E-3,.202E-5,0
CZ-10B R/B,2026-158C,2026-07-20T10:55:09.846912,14.64300905,.01979891,49.9628,255.3274,220.6667,137.9334,0,U,69974,999,149,.39577301E-4,.34E-6,0
STARLINK-38024,2026-159A,2026-07-20T20:00:01.999008,15.80826215,.0001474,97.2855,40.8269,101.7201,260.8999,0,U,69975,999,275,-.18644E-3,-.35725E-3,0
STARLINK-37993,2026-159B,2026-07-20T20:00:01.999008,15.80826210,.0001173,97.2853,40.8285,92.8984,273.9965,0,U,69976,999,275,-.19964E-3,-.38233E-3,0
STARLINK-37995,2026-159C,2026-07-20T20:00:01.999008,15.80821294,.0001077,97.2853,40.8305,99.0323,272.1341,0,U,69977,999,275,-.83508E-4,-.16111E-3,0
STARLINK-38057,2026-159D,2026-07-20T20:00:01.999008,15.80766847,.0001434,97.2852,40.8324,88.3365,287.0870,0,U,69978,999,275,.16186E-3,.30902E-3,0
STARLINK-38063,2026-159E,2026-07-20T20:00:01.999008,15.80846024,.0001584,97.2850,40.8351,96.4396,283.2647,0,U,69979,999,275,-.26105E-3,-.49931E-3,0
STARLINK-38093,2026-159F,2026-07-20T20:00:01.999008,15.80833185,.0001504,97.2854,40.8367,93.2139,290.7699,0,U,69980,999,275,-.21707E-3,-.41557E-3,0
STARLINK-38050,2026-159G,2026-07-20T20:00:01.999008,15.80797878,.0001094,97.2851,40.8382,102.4875,285.7778,0,U,69981,999,275,-.75788E-4,-.14622E-3,0
STARLINK-38065,2026-159H,2026-07-20T20:00:01.999008,15.80814895,.0001177,97.2852,40.8404,98.4587,294.0812,0,U,69982,999,275,-.16607E-3,-.31833E-3,0
STARLINK-38077,2026-159J,2026-07-20T20:00:01.999008,15.80814540,.0001111,97.2853,40.8422,93.7242,303.0879,0,U,69983,999,275,-.13025E-3,-.25017E-3,0
STARLINK-38068,2026-159K,2026-07-20T20:00:01.999008,15.80816552,.0001076,97.2851,40.8440,106.9212,294.1597,0,U,69984,999,275,-.13301E-3,-.25545E-3,0
STARLINK-38089,2026-159L,2026-07-20T20:00:01.999008,15.80826724,.0001531,97.2851,40.8461,95.2149,310.1479,0,U,69985,999,275,-.23813E-3,-.45542E-3,0
STARLINK-38073,2026-159M,2026-07-20T20:00:01.999008,15.80806989,.0001439,97.2852,40.8478,71.6415,337.9716,0,U,69986,999,275,.12788E-3,.24411E-3,0
STARLINK-38099,2026-159N,2026-07-20T20:00:01.999008,15.80796055,.0001653,97.2852,40.8494,91.4235,322.4847,0,U,69987,999,275,.99017E-4,.18849E-3,0
STARLINK-38064,2026-159P,2026-07-20T20:00:01.999008,15.80803042,.000157,97.2852,40.8528,100.2829,322.1696,0,U,69988,999,275,-.11145E-3,-.21425E-3,0
STARLINK-38080,2026-159Q,2026-07-20T20:00:01.999008,15.80796145,.0001488,97.2850,40.8514,97.8435,320.3456,0,U,69989,999,275,.62966E-4,.11925E-3,0
STARLINK-38070,2026-159R,2026-07-20T20:00:01.999008,15.80951315,.0000939,97.2851,40.8548,109.6577,317.0092,0,U,69990,999,275,-.13067E-2,-.245055E-2,0
STARLINK-38042,2026-159S,2026-07-20T20:00:01.999008,15.81239587,.0001347,97.2851,40.8565,93.7843,336.9909,0,U,69991,999,275,-.34516E-2,-.627989E-2,0
STARLINK-38071,2026-159T,2026-07-20T20:00:01.999008,15.81593399,.000138,97.2852,40.8582,72.4019,2.4105,0,U,69992,999,275,-.5773E-2,-.1020273E-1,0
STARLINK-38082,2026-159U,2026-07-20T20:00:01.999008,15.81962048,.0001124,97.2854,40.8598,76.8427,1.9438,0,U,69993,999,275,-.7838E-2,-.1382497E-1,0
STARLINK-38090,2026-159V,2026-07-20T20:00:01.999008,15.82207730,.0001396,97.2855,40.8615,78.9134,3.8224,0,U,69994,999,275,-.80385E-2,-.1456399E-1,0
STARLINK-38084,2026-159W,2026-07-20T20:00:01.999008,15.82413739,.0001642,97.2856,40.8638,73.4028,13.2669,0,U,69995,999,275,-.78769E-2,-.1442867E-1,0
STARLINK-38085,2026-159X,2026-07-20T20:00:01.999008,15.82683524,.0001473,97.2855,40.8652,82.1392,8.3455,0,U,69996,999,275,-.81856E-2,-.150958E-1,0
STARLINK-38091,2026-159Y,2026-07-20T20:00:01.999008,15.82818813,.0001487,97.2855,40.8667,69.9529,24.3903,0,U,69997,999,275,-.74182E-2,-.1365068E-1,0
STARLINK-38086,2026-159Z,2026-07-20T20:00:01.999008,15.83070273,.0001543,97.2853,40.8675,78.0586,20.0390,0,U,69998,999,275,-.78541E-2,-.1479122E-1,0
