CZ-10B DEB              
1 69973U 26158B   26201.87897899  .00000202  00000+0  15382-3 0  9997
2 69973  49.9833 256.4490 0005851 329.8507  30.2068 14.24892309  1513
CZ-10B R/B              
1 69974U 26158C   26201.45497508  .00000034  00000+0  39577-4 0  9991
2 69974  49.9628 255.3274 0197989 220.6667 137.9334 14.64300905  1491
STARLINK-38024          
1 69975U 26159A   26201.83335647 -.00035725  00000+0 -18644-3 0  9998
2 69975  97.2855  40.8269 0001474 101.7201 260.8999 15.80826215  2756
STARLINK-37993          
1 69976U 26159B   26201.83335647 -.00038233  00000+0 -19964-3 0  9992
2 69976  97.2853  40.8285 0001173  92.8984 273.9965 15.80826210  2750
STARLINK-37995          
1 69977U 26159C   26201.83335647 -.00016111  00000+0 -83508-4 0  9990
2 69977  97.2853  40.8305 0001077  99.0323 272.1341 15.80821294  2759
STARLINK-38057          
1 69978U 26159D   26201.83335647  .00030902  00000+0  16186-3 0  9990
2 69978  97.2852  40.8324 0001434  88.3365 287.0870 15.80766847  2758
STARLINK-38063          
1 69979U 26159E   26201.83335647 -.00049931  00000+0 -26105-3 0  9997
2 69979  97.2850  40.8351 0001584  96.4396 283.2647 15.80846024  2753
STARLINK-38093          
1 69980U 26159F   26201.83335647 -.00041557  00000+0 -21707-3 0  9998
2 69980  97.2854  40.8367 0001504  93.2139 290.7699 15.80833185  2752
STARLINK-38050          
1 69981U 26159G   26201.83335647 -.00014622  00000+0 -75788-4 0  9991
2 69981  97.2851  40.8382 0001094 102.4875 285.7778 15.80797878  2751
STARLINK-38065          
1 69982U 26159H   26201.83335647 -.00031833  00000+0 -16607-3 0  9999
2 69982  97.2852  40.8404 0001177  98.4587 294.0812 15.80814895  2755
STARLINK-38077          
1 69983U 26159J   26201.83335647 -.00025017  00000+0 -13025-3 0  9998
2 69983  97.2853  40.8422 0001111  93.7242 303.0879 15.80814540  2752
STARLINK-38068          
1 69984U 26159K   26201.83335647 -.00025545  00000+0 -13301-3 0  9992
2 69984  97.2851  40.8440 0001076 106.9212 294.1597 15.80816552  2757
STARLINK-38089          
1 69985U 26159L   26201.83335647 -.00045542  00000+0 -23813-3 0  9991
2 69985  97.2851  40.8461 0001531  95.2149 310.1479 15.80826724  2756
STARLINK-38073          
1 69986U 26159M   26201.83335647  .00024411  00000+0  12788-3 0  9991
2 69986  97.2852  40.8478 0001439  71.6415 337.9716 15.80806989  2759
STARLINK-38099          
1 69987U 26159N   26201.83335647  .00018849  00000+0  99017-4 0  9991
2 69987  97.2852  40.8494 0001653  91.4235 322.4847 15.80796055  2752
STARLINK-38064          
1 69988U 26159P   26201.83335647 -.00021425  00000+0 -11145-3 0  9993
2 69988  97.2852  40.8528 0001570 100.2829 322.1696 15.80803042  2751
STARLINK-38080          
1 69989U 26159Q   26201.83335647  .00011925  00000+0  62966-4 0  9994
2 69989  97.2850  40.8514 0001488  97.8435 320.3456 15.80796145  2756
STARLINK-38070          
1 69990U 26159R   26201.83335647 -.00245055  00000+0 -13067-2 0  9997
2 69990  97.2851  40.8548 0000939 109.6577 317.0092 15.80951315  2756
STARLINK-38042          
1 69991U 26159S   26201.83335647 -.00627989  00000+0 -34516-2 0  9990
2 69991  97.2851  40.8565 0001347  93.7843 336.9909 15.81239587  2757
STARLINK-38071          
1 69992U 26159T   26201.83335647 -.01020273  00000+0 -57730-2 0  9998
2 69992  97.2852  40.8582 0001380  72.4019   2.4105 15.81593399  2751
STARLINK-38082          
1 69993U 26159U   26201.83335647 -.01382497  00000+0 -78380-2 0  9992
2 69993  97.2854  40.8598 0001124  76.8427   1.9438 15.81962048  2752
STARLINK-38090          
1 69994U 26159V   26201.83335647 -.01456399  00000+0 -80385-2 0  9994
2 69994  97.2855  40.8615 0001396  78.9134   3.8224 15.82207730  2758
STARLINK-38084          
1 69995U 26159W   26201.83335647 -.01442867  00000+0 -78769-2 0  9993
2 69995  97.2856  40.8638 0001642  73.4028  13.2669 15.82413739  2757
STARLINK-38085          
1 69996U 26159X   26201.83335647 -.01509580  00000+0 -81856-2 0  9991
2 69996  97.2855  40.8652 0001473  82.1392   8.3455 15.82683524  2755
STARLINK-38091          
1 69997U 26159Y   26201.83335647 -.01365068  00000+0 -74182-2 0  9997
2 69997  97.2855  40.8667 0001487  69.9529  24.3903 15.82818813  2759
STARLINK-38086          
1 69998U 26159Z   26201.83335647 -.01479122  00000+0 -78541-2 0  9998
2 69998  97.2853  40.8675 0001543  78.0586  20.0390 15.83070273  2758
